*******************************************************************************
Ephemeris / WWW_USER Wed Mar 14 15:33:27 2018 Pasadena, USA      / Horizons    
*******************************************************************************
Target body name: Jupiter (599)                   {source: jup341}
Center body name: Solar System Barycenter (0)     {source: DE431mx}
Center-site name: BODY CENTER
*******************************************************************************
Start time      : A.D. 2000-Jan-01 00:00:00.0000 TDB
Stop  time      : A.D. 2001-Jan-01 00:00:00.0000 TDB
Step-size       : 7200 minutes
*******************************************************************************
Center geodetic : 0.00000000,0.00000000,0.0000000 {E-lon(deg),Lat(deg),Alt(km)}
Center cylindric: 0.00000000,0.00000000,0.0000000 {E-lon(deg),Dxy(km),Dz(km)}
Center radii    : (undefined)                                                  
Output units    : AU-D                                                         
Output type     : GEOMETRIC cartesian states
Output format   : 2 (position and velocity)
Reference frame : ICRF/J2000.0                                                 
Coordinate systm: Ecliptic and Mean Equinox of Reference Epoch                 
*******************************************************************************
JDTDB
   X     Y     Z
   VX    VY    VZ
*******************************************************************************
$$SOE
2451544.500000000 = A.D. 2000-Jan-01 00:00:00.0000 TDB 
   3.996321311639923E+00  2.932561211453399E+00 -1.016170979796550E-01
  -4.558376601128736E-03  6.439863225114239E-03  7.537568971876798E-05
2451549.500000000 = A.D. 2000-Jan-06 00:00:00.0000 TDB 
   3.973410465548268E+00  2.964668968910902E+00 -1.012372170514934E-01
  -4.606236652479100E-03  6.404197788684072E-03  7.660622899290534E-05
2451554.500000000 = A.D. 2000-Jan-11 00:00:00.0000 TDB 
   3.950257612491627E+00  2.996598742531064E+00 -1.008511901971954E-01
  -4.654276674335153E-03  6.367593233893911E-03  7.780751286611512E-05
2451559.500000000 = A.D. 2000-Jan-16 00:00:00.0000 TDB 
   3.926867510840936E+00  3.028345613511794E+00 -1.004591149818344E-01
  -4.701820105096340E-03  6.331464359080115E-03  7.903583029648564E-05
2451564.500000000 = A.D. 2000-Jan-21 00:00:00.0000 TDB 
   3.903240470421760E+00  3.059909266847868E+00 -1.000609773727038E-01
  -4.748309903939896E-03  6.294395121552464E-03  8.024579845192978E-05
2451569.500000000 = A.D. 2000-Jan-26 00:00:00.0000 TDB 
   3.879375885989364E+00  3.091290939397455E+00 -9.965672439673161E-02
  -4.796628082389928E-03  6.256861445369354E-03  8.141557846946693E-05
2451574.500000000 = A.D. 2000-Jan-31 00:00:00.0000 TDB 
   3.855277408812024E+00  3.122484651826879E+00 -9.924650000864875E-02
  -4.844021604958777E-03  6.219622628598481E-03  8.262084752166787E-05
2451579.500000000 = A.D. 2000-Feb-05 00:00:00.0000 TDB 
   3.830948213416366E+00  3.153488054950643E+00 -9.883033110771383E-02
  -4.888824692678827E-03  6.183110901257155E-03  8.388128756395548E-05
2451584.500000000 = A.D. 2000-Feb-10 00:00:00.0000 TDB 
   3.806385779394221E+00  3.184304111129355E+00 -9.840813682296055E-02
  -4.935048156309249E-03  6.144173123832365E-03  8.504099652459091E-05
2451589.500000000 = A.D. 2000-Feb-15 00:00:00.0000 TDB 
   3.781592955428776E+00  3.214928118480975E+00 -9.798002246024563E-02
  -4.981177354991061E-03  6.104622231620564E-03  8.618909070046658E-05
2451594.500000000 = A.D. 2000-Feb-20 00:00:00.0000 TDB 
   3.756574606868661E+00  3.245356412600560E+00 -9.754604808346212E-02
  -5.026389115529745E-03  6.066554265503704E-03  8.739598524678260E-05
2451599.500000000 = A.D. 2000-Feb-25 00:00:00.0000 TDB 
   3.731328889674967E+00  3.275590736906246E+00 -9.710616494937652E-02
  -5.071648393668444E-03  6.026920265999561E-03  8.855119849521645E-05
2451604.500000000 = A.D. 2000-Mar-01 00:00:00.0000 TDB 
   3.705857244600969E+00  3.305629318100574E+00 -9.666040150396733E-02
  -5.117236903998686E-03  5.987413883742926E-03  8.970913977479889E-05
2451609.500000000 = A.D. 2000-Mar-06 00:00:00.0000 TDB 
   3.680163920622850E+00  3.335466840190615E+00 -9.620888534430758E-02
  -5.161391942835319E-03  5.948247278669805E-03  9.090362643717826E-05
2451614.500000000 = A.D. 2000-Mar-11 00:00:00.0000 TDB 
   3.654249592084022E+00  3.365103343597247E+00 -9.575159582774198E-02
  -5.203893201634708E-03  5.907961394972821E-03  9.207740172267674E-05
2451619.500000000 = A.D. 2000-Mar-16 00:00:00.0000 TDB 
   3.628113569116880E+00  3.394540673671890E+00 -9.528847304579402E-02
  -5.248720481827964E-03  5.866360622055070E-03  9.317361621991105E-05
2451624.500000000 = A.D. 2000-Mar-21 00:00:00.0000 TDB 
   3.601759840896082E+00  3.423772624999192E+00 -9.481967201749862E-02
  -5.292892022726357E-03  5.825012096500791E-03  9.429631794304415E-05
2451629.500000000 = A.D. 2000-Mar-26 00:00:00.0000 TDB 
   3.575191879842252E+00  3.452797366755128E+00 -9.434521038975034E-02
  -5.335234903275654E-03  5.785058895990015E-03  9.548320096036721E-05
2451634.500000000 = A.D. 2000-Mar-31 00:00:00.0000 TDB 
   3.548407279026392E+00  3.481617628175226E+00 -9.386502302615134E-02
  -5.378539932091819E-03  5.743135056264739E-03  9.659276944682323E-05
2451639.500000000 = A.D. 2000-Apr-05 00:00:00.0000 TDB 
   3.521409181291045E+00  3.510228722508720E+00 -9.337922297899617E-02
  -5.420952312480205E-03  5.701091856931803E-03  9.771508603896517E-05
2451644.500000000 = A.D. 2000-Apr-10 00:00:00.0000 TDB 
   3.494201835098900E+00  3.538627293304088E+00 -9.288787935062998E-02
  -5.462174030813905E-03  5.659528114527771E-03  9.886501631134921E-05
2451649.500000000 = A.D. 2000-Apr-15 00:00:00.0000 TDB 
   3.466783945238300E+00  3.566815329466305E+00 -9.239093570643718E-02
  -5.503556890389364E-03  5.615948375057254E-03  9.994202615186863E-05
2451654.500000000 = A.D. 2000-Apr-20 00:00:00.0000 TDB 
   3.439157299901129E+00  3.594791648487021E+00 -9.188840917426340E-02
  -5.546358313769429E-03  5.572728846634350E-03  1.010113634323124E-04
2451659.500000000 = A.D. 2000-Apr-25 00:00:00.0000 TDB 
   3.411326084587726E+00  3.622550471187217E+00 -9.138045188520086E-02
  -5.587624615288693E-03  5.530271796013532E-03  1.021328706776436E-04
2451664.500000000 = A.D. 2000-Apr-30 00:00:00.0000 TDB 
   3.383291448753259E+00  3.650092131845326E+00 -9.086703845856163E-02
  -5.626885172251668E-03  5.487587016682524E-03  1.032657446755340E-04
2451669.500000000 = A.D. 2000-May-05 00:00:00.0000 TDB 
   3.355052403692784E+00  3.677418615615209E+00 -9.034812009296493E-02
  -5.667893231893660E-03  5.443210331268868E-03  1.043174653900453E-04
2451674.500000000 = A.D. 2000-May-10 00:00:00.0000 TDB 
   3.326613077172562E+00  3.704523638300070E+00 -8.982386170252314E-02
  -5.707651573359541E-03  5.398639038952359E-03  1.053842055403881E-04
2451679.500000000 = A.D. 2000-May-15 00:00:00.0000 TDB 
   3.297976886578143E+00  3.731406163970630E+00 -8.929426661265544E-02
  -5.746462016478322E-03  5.354848002179151E-03  1.064784969241646E-04
2451684.500000000 = A.D. 2000-May-20 00:00:00.0000 TDB 
   3.269141897720013E+00  3.758068866076368E+00 -8.875927299786962E-02
  -5.786677624817411E-03  5.309270552269761E-03  1.074943584156486E-04
2451689.500000000 = A.D. 2000-May-25 00:00:00.0000 TDB 
   3.240111729575658E+00  3.784507198934991E+00 -8.821899545839358E-02
  -5.826199324509947E-03  5.264720627227926E-03  1.085559272432478E-04
2451694.500000000 = A.D. 2000-May-30 00:00:00.0000 TDB 
   3.210890094157004E+00  3.810717641643726E+00 -8.767352572912965E-02
  -5.863865426958093E-03  5.220635919855222E-03  1.096552292755386E-04
2451699.500000000 = A.D. 2000-Jun-04 00:00:00.0000 TDB 
   3.181476134769462E+00  3.836702364715658E+00 -8.712280490157984E-02
  -5.900891435054244E-03  5.174532639637619E-03  1.106890868686074E-04
2451704.500000000 = A.D. 2000-Jun-09 00:00:00.0000 TDB 
   3.151871474211457E+00  3.862460785114768E+00 -8.656684513399299E-02
  -5.939643407861198E-03  5.128051638512306E-03  1.116839233071209E-04
2451709.500000000 = A.D. 2000-Jun-14 00:00:00.0000 TDB 
   3.122080336656542E+00  3.887986962476313E+00 -8.600581046484310E-02
  -5.977054480482974E-03  5.081868533482530E-03  1.127092880818656E-04
2451714.500000000 = A.D. 2000-Jun-19 00:00:00.0000 TDB 
   3.092104449957946E+00  3.913281871310017E+00 -8.543965770175023E-02
  -6.013369388133458E-03  5.036132057050466E-03  1.137523205892872E-04
2451719.500000000 = A.D. 2000-Jun-24 00:00:00.0000 TDB 
   3.061942845781884E+00  3.938347309389395E+00 -8.486835401858676E-02
  -6.051277228069246E-03  4.989220469815628E-03  1.147356969831867E-04
2451724.500000000 = A.D. 2000-Jun-29 00:00:00.0000 TDB 
   3.031599845505693E+00  3.963176801565235E+00 -8.429207866065164E-02
  -6.086992793009216E-03  4.942716974847606E-03  1.157643175531491E-04
2451729.500000000 = A.D. 2000-Jul-04 00:00:00.0000 TDB 
   3.001078377172322E+00  3.987769839863633E+00 -8.371083514651351E-02
  -6.121512012121890E-03  4.896224469929081E-03  1.167969939968191E-04
2451734.500000000 = A.D. 2000-Jul-09 00:00:00.0000 TDB 
   2.970376890718044E+00  4.012129212367847E+00 -8.312456033621013E-02
  -6.157318070438520E-03  4.847353675014415E-03  1.177296849471987E-04
2451739.500000000 = A.D. 2000-Jul-14 00:00:00.0000 TDB 
   2.939499297153150E+00  4.036250940295811E+00 -8.253335834546414E-02
  -6.193389697076236E-03  4.799615990509701E-03  1.186940252303541E-04
2451744.500000000 = A.D. 2000-Jul-19 00:00:00.0000 TDB 
   2.908449144620753E+00  4.060131313368249E+00 -8.193733703804104E-02
  -6.227867438158245E-03  4.752524013022123E-03  1.196986372922667E-04
2451749.500000000 = A.D. 2000-Jul-24 00:00:00.0000 TDB 
   2.877226272031426E+00  4.083772673700699E+00 -8.133643288530373E-02
  -6.261425419120800E-03  4.704516290232705E-03  1.206761579545833E-04
